C/2018 Y1 (Iwamoto),e,160.4030,147.4967,358.0518,144.2625,0.0005688,0.99108219,0.0000,02/07.0346/2019,2000,g 11.5,4.0
# From MPC114605
P/2018 Y2 (Africano),e,11.6826,297.2662,162.4417,7.469446,0.0482805,0.47885740,20.9428,03/11.0/2020,2000,g 11.5,4.0
# From MPC114605
P/2019 A1 (PANSTARRS),e,13.7442,312.3009,150.8317,5.126440,0.0849142,0.56854822,43.9061,03/11.0/2020,2000,g 16.0,4.0
# From MPC114605
P/2019 A2 (ATLAS),e,14.8592,139.4628,324.1704,5.727778,0.0718993,0.38154042,34.2170,03/11.0/2020,2000,g 10.5,4.0
# From MPC114605
P/2019 A3 (PANSTARRS),e,15.3647,31.3204,325.4789,3.147518,0.1765028,0.26521134,103.6260,03/11.0/2020,2000,g 16.0,4.0
# From MPC114605
P/2019 A4 (PANSTARRS),e,13.3206,119.3005,341.6158,2.612778,0.2333729,0.08932737,107.9625,03/11.0/2020,2000,g 15.0,4.0
# From MPC118842
C/2019 A5 (PANSTARRS),e,67.5480,146.6208,356.0240,21.62882,0.0097984,0.70761255,2.7019,03/11.0/2020,2000,g  9.5,4.0
# From MPC114605
P/2019 A6 (Lemmon-PANSTARRS),e,33.2292,280.2740,156.2611,5.367025,0.0792691,0.63893262,44.3748,03/11.0/2020,2000,g 16.0,4.0
# From MPC114605
P/2019 A7 (PANSTARRS),e,17.7743,280.5245,119.3501,3.186529,0.1732715,0.16087546,137.5105,03/11.0/2020,2000,g 13.5,4.0
# From MPC115884
P/2019 A8 (PANSTARRS),e,2.9783,127.7902,21.8108,3.364214,0.1597271,0.44116380,88.5650,03/11.0/2020,2000,g 16.0,4.0
# From MPC118842
C/2019 A9 (PANSTARRS),e,84.3416,278.3684,237.8265,39.00373,0.0040462,0.96341904,0.9243,03/11.0/2020,2000,g 15.0,4.0
# From MPC114606
C/2019 B1 (Africano),e,123.3634,290.4355,174.8697,150.9304,0.0005315,0.98941908,0.0000,03/19.8961/2019,2000,g 16.0,4.0
# From MPC115885
P/2019 B2 (Groeller),e,16.8270,176.4482,358.7845,3.854348,0.1302500,0.37295279,36.0480,03/11.0/2020,2000,g 14.5,4.0
# From MPC115885
C/2019 B3 (PANSTARRS),h,01/19.6034/2021,66.5346,358.4172,263.8794,1.002916,6.823994,2000,5.5,4.0
# From MPEC 2020-AA5
A/2019 C1,e,36.0157,212.3984,319.1907,846.0681,0.0000400,0.99222142,0.0000,05/05.7434/2020,2000,g 10.0,4.0
# From MPC118842
C/2019 D1 (Flewelling),e,34.0958,231.7195,70.4888,138.8951,0.0006021,0.98864036,0.0000,05/11.8569/2019,2000,g 13.0,4.0
# From MPC119997
C/2019 E3 (ATLAS),h,11/11.6962/2023,84.2783,347.2217,280.5871,1.004898,10.316064,2000,2.5,4.0
# From MPC119997
C/2019 F1 (ATLAS-Africano),h,06/22.7653/2021,54.1741,38.7259,251.1019,1.003330,3.596380,2000,5.5,4.0
# From MPC119997
C/2019 F2 (ATLAS),e,19.1876,175.8612,10.9771,16.58332,0.0145948,0.86534460,2.6864,03/11.0/2020,2000,g 12.0,4.0
# From MPEC 2020-AA5
A/2019 G2,e,159.2115,208.1459,82.6526,720.7007,0.0000509,0.99682067,0.0000,12/10.0581/2019,2000,g 16.5,2.0
# From MPC118094
A/2019 G4,h,09/15.7489/2018,138.3825,130.4662,287.8776,1.000646,5.858741,2000,13.0,2.0
# From MPC114607
P/2019 GG21 (PANSTARRS),e,6.0838,340.6009,208.3450,7.465520,0.0483186,0.47286628,14.7807,03/11.0/2020,2000,g 12.0,4.0
# From MPC115885
C/2019 H1 (NEOWISE),e,104.5790,269.1858,19.2878,226.8207,0.0002885,0.99186586,0.0000,04/27.7365/2019,2000,g 15.5,4.0
# From MPC118842
C/2019 J1 (Lemmon),e,24.5506,98.0882,167.7757,70.21858,0.0016750,0.96470272,0.5641,03/11.0/2020,2000,g 12.0,4.0
# From MPC115885
C/2019 J2 (Palomar),e,105.1350,25.4712,98.7077,694.2928,0.0000539,0.99751260,0.0000,07/19.7241/2019,2000,g 13.0,4.0
# From MPC117071
C/2019 J3 (ATLAS),e,131.4138,270.5176,16.5480,27794,0.0000002,0.99991460,0.0000,08/01.8695/2019,2000,g 13.5,4.0
# From MPC117071
C/2019 JU6 (ATLAS),e,148.2929,21.7365,94.8695,329.4126,0.0001649,0.99379229,0.0000,05/31.8640/2019,2000,g 14.5,4.0
# From MPC119997
C/2019 K1 (ATLAS),e,87.1496,73.3749,265.7062,10535,0.0000009,0.99980896,0.0000,02/12.9620/2020,2000,g 10.0,4.0
# From MPC119997
C/2019 K4 (Ye),e,105.3037,180.1652,139.7745,2043,0.0000107,0.99889387,0.0000,06/16.4131/2019,2000,g 12.5,4.0
# From MPC119997
C/2019 K5 (Young),e,15.3147,177.1836,174.9280,153.3274,0.0005191,0.98672692,0.0000,06/22.7725/2019,2000,g 13.0,4.0
# From MPC117071
A/2019 K6,e,132.3742,42.9398,187.6077,1534,0.0000164,0.99743838,0.0000,05/20.1277/2020,2000,g 13.6,2.0
# From MPC118095
C/2019 K7 (Smith),h,06/16.8472/2020,103.5156,307.9187,27.2840,1.002102,4.474964,2000,6.2,4.0
# From MPC119997
C/2019 K8 (ATLAS),e,93.2227,291.0450,85.3623,1649,0.0000147,0.99806253,0.0000,07/21.2678/2019,2000,g 11.5,4.0
# From MPC118095
C/2019 L1 (PANSTARRS),e,9.9934,254.4075,49.9276,9.833070,0.0319647,0.70606246,6.7990,03/11.0/2020,2000,g 13.5,4.0
# From MPC115886
C/2019 L2 (NEOWISE),e,152.1817,12.5796,18.7504,24.96039,0.0079036,0.93510131,2.7194,03/11.0/2020,2000,g 16.0,4.0
# From MPC119997
C/2019 L3 (ATLAS),h,01/09.9065/2022,48.3664,290.7853,171.6705,1.000375,3.552873,2000,4.5,4.0
# From MPC118095
C/2019 LB7 (Kleyna),e,164.2366,3.3088,335.9563,35.24861,0.0047097,0.92953447,1.6468,03/11.0/2020,2000,g 17.0,4.0
# From MPC118843
P/2019 M2 (ATLAS),e,12.2818,307.6006,332.5329,3.025600,0.1872780,0.64847750,49.1292,03/11.0/2020,2000,g 21.2,4.0
# From MPC118095
C/2019 M3 (ATLAS),h,01/03.0193/2019,99.4404,154.8956,87.9426,1.001995,2.418267,2000,12.2,4.0
# From MPC119997
C/2019 N1 (ATLAS),e,82.4244,13.5775,193.4438,18455,0.0000004,0.99990763,0.0000,12/01.7924/2020,2000,g  7.5,4.0
# From MPEC 2020-AA5
A/2019 O2,e,93.2864,48.3413,129.6504,57.52155,0.0022592,0.83167250,357.4646,03/11.0/2020,2000,g  9.5,2.0
# From MPC118843
A/2019 O3,h,03/07.2218/2021,89.8137,300.3802,60.0102,1.001413,8.819236,2000,10.0,2.0
# From MPC117072
A/2019 O4,e,115.0852,354.9194,61.8069,32.87830,0.0052281,0.88915352,0.1572,03/11.0/2020,2000,g 15.5,2.0
# From MPEC 2020-AA5
A/2019 Q1,h,07/19.7337/2020,155.7202,42.3370,55.9254,1.000497,4.996730,2000,12.5,2.0
# From MPC117072
A/2019 Q2,e,159.0264,187.9886,176.2923,58.27866,0.0022153,0.97841967,0.0000,07/22.3795/2019,2000,g 18.0,2.0
# From MPC117072
C/2019 Q3 (PANSTARRS),h,08/20.9578/2018,65.5316,151.3252,152.6394,1.004593,7.250804,2000,8.5,4.0
# From MPC117072
P/2019 S2 (PANSTARRS),e,10.4732,93.1264,216.7387,4.734257,0.0956811,0.20678362,36.7596,03/11.0/2020,2000,g 13.5,4.0
# From MPC118096
P/2019 S3 (PANSTARRS),e,8.6925,150.1668,212.9641,3.413887,0.1562537,0.47074149,30.9194,03/11.0/2020,2000,g 18.3,4.0
# From MPEC 2020-AA5
A/2019 S4,e,92.0238,63.1681,71.3563,239.8526,0.0002653,0.98565099,0.0000,04/07.9474/2020,2000,g 14.5,2.0
# From MPC118843
A/2019 T1,e,120.8683,6.9491,90.9951,38.21115,0.0041727,0.88793675,358.7104,03/11.0/2020,2000,g 13.0,2.0
# From MPEC 2020-AA5
A/2019 T2,e,111.4653,155.6392,239.3943,1885,0.0000120,0.99859653,0.0000,04/22.3265/2021,2000,g 12.5,2.0
# From MPC119998
C/2019 T3 (ATLAS),e,121.8623,139.5135,112.2528,11706,0.0000008,0.99949200,0.0000,03/02.4218/2021,2000,g  6.8,4.0
# From MPC119998
C/2019 T4 (ATLAS),e,53.6164,199.9802,351.2046,1051,0.0000289,0.99596220,0.0000,06/09.3125/2022,2000,g  5.0,4.0
# From MPC119998
P/2019 T5 (ATLAS),e,33.4226,247.6963,189.6174,8.016643,0.0434225,0.80928636,9.6771,03/11.0/2020,2000,g 15.0,4.0
# From MPC119998
P/2019 T6 (PANSTARRS),e,18.6966,71.3110,328.9099,5.432909,0.0778315,0.62231652,9.6697,03/11.0/2020,2000,g 15.5,4.0
# From MPC118096
P/2019 U4 (PANSTARRS),e,11.6907,200.0368,180.9583,3.520061,0.1492378,0.47528216,26.0637,03/11.0/2020,2000,g 19.0,4.0
# From MPC118844
A/2019 U5,h,03/30.5174/2023,113.5280,2.7046,181.6208,1.000320,3.621213,2000,10.0,2.0
# From MPEC 2020-AA5
A/2019 U6,e,61.0017,235.7063,329.6580,437.0774,0.0001079,0.99790821,0.0000,06/18.8217/2020,2000,g 14.5,2.0
# From MPC119998
C/2019 V1 (Borisov),e,61.8643,83.2063,51.2002,2622,0.0000073,0.99881859,0.0000,07/16.5755/2020,2000,g 11.0,4.0
# From MPC119998
P/2019 V2 (Groeller),e,11.8022,189.1706,336.3604,7.519387,0.0478003,0.33285806,349.1974,03/11.0/2020,2000,g 10.0,4.0
# From MPC119998
P/2019 W1 (PANSTARRS),e,23.4604,35.4201,18.7366,4.550616,0.1015310,0.26610081,31.2800,03/11.0/2020,2000,g 12.9,4.0
# From MPC119998
P/2019 X1 (Pruyne),e,10.2450,43.7190,36.6414,6.177831,0.0641874,0.30339257,15.0743,03/11.0/2020,2000,g 10.4,4.0
# From MPC119999
C/2019 Y1 (ATLAS),e,73.2513,31.5194,57.9774,86.87397,0.0012172,0.99042775,0.0000,03/15.5989/2020,2000,g 13.7,4.0
# From MPC119999
P/2019 Y2 (Fuls),e,4.9020,81.0805,91.7210,3.528794,0.1486842,0.39617850,6.0037,03/11.0/2020,2000,g 13.2,4.0
# From MPEC 2020-C98
P/2019 Y3 (Catalina),e,24.6352,139.3821,2.2693,2.997935,0.1898763,0.69578514,16.8115,03/11.0/2020,2000,g 18.5,4.0
# From MPEC 2020-C98
C/2019 Y4 (ATLAS),e,45.3906,120.5781,177.3987,312.1824,0.0001787,0.99918962,0.0000,05/31.0443/2020,2000,g 12.0,4.0
# From MPEC 2020-C98
A/2019 Y5,e,82.8367,51.7763,303.4993,777.7738,0.0000454,0.99368141,0.0000,08/18.1486/2019,2000,g 14.0,2.0
# From MPEC 2020-C98
A/2020 A1,e,149.0018,119.3250,302.3674,21.87721,0.0096320,0.92378648,0.9625,03/11.0/2020,2000,g 18.0,2.0
# From MPEC 2020-C98
C/2020 A2 (Iwamoto),h,01/08.3489/2020,120.7476,286.3719,68.2359,1.000213,0.978286,2000,13.5,4.0
# From MPEC 2020-C98
C/2020 A3 (ATLAS),h,07/29.4243/2019,146.7764,120.3791,271.1536,1.024144,5.839278,2000,8.0,4.0
# From MPEC 2020-C98
A/2020 B1,e,18.5140,310.0335,154.7940,52.40013,0.0025984,0.96664550,0.1976,03/11.0/2020,2000,g 21.0,2.0
# From MPC xxxxx
C/2020 B2 (Lemmon),e,55.5298,354.4463,142.7560,60.29721,0.0021050,0.95417947,0.0998,03/11.0/2020,2000,g 14.5,4.0
# From MPC xxxxx
C/2020 B3 (Rankin),e,20.7568,185.7960,325.9241,218.4481,0.0003053,0.98463916,0.0000,10/22.8736/2019,2000,g 11.5,4.0
# From  98, 1083
1P/Halley,e,162.3141,58.1919,111.1297,17.86909,0.0130482,0.96626416,162.7384,03/11.0/2020,2000,g  4.0,6.0
# From MPC118097
2P/Encke,e,11.7647,334.5531,186.5623,2.215246,0.2989310,0.84800337,328.0607,03/11.0/2020,2000,g 11.5,6.0
# From MPEC 2015-A10
4P/Faye,e,8.0164,193.3899,206.7450,3.823565,0.1318261,0.57861094,287.9022,03/11.0/2020,2000,g  8.0,6.0
# From MPEC 2015-S97
6P/d'Arrest,e,19.5101,138.9296,178.0779,3.498447,0.1506230,0.61248761,276.2805,03/11.0/2020,2000,g  9.0,4.0
# From MPEC 2015-E14
7P/Pons-Winnecke,e,22.3646,93.3807,172.5584,3.415776,0.1561241,0.63854391,290.9824,03/11.0/2020,2000,g  9.0,4.0
# From MPC 75715
8P/Tuttle,e,54.9123,270.2066,207.4961,5.700912,0.0724082,0.81998291,321.2723,03/11.0/2020,2000,g  9.0,4.0
